[
    {
        "Altitude(m)": 554398.9717778568,
        "Argument of Periapsis(deg)": 0.026491964442854003,
        "Eccentricity": 0.0,
        "Inclination(deg)": 53.0,
        "Latitude(deg)": -1.224348299350266,
        "Longitude(deg)": 130.898151962717,
        "Mean Anomaly(deg)": -1.4517285296896525,
        "RAAN(deg)": 234.96057347411207,
        "Satellite Name": "Starlink Shell 1 1053",
        "Satellite Number": 1053,
        "Semi-Major Axis(m)": 6931778.249405717,
        "Time(s)": 760
    },
    {
        "Altitude(m)": 554328.2145053367,
        "Argument of Periapsis(deg)": 0.02684054292236524,
        "Eccentricity": 0.0,
        "Inclination(deg)": 53.0,
        "Latitude(deg)": -0.7204688300136372,
        "Longitude(deg)": 131.23361720242798,
        "Mean Anomaly(deg)": -0.824897326132906,
        "RAAN(deg)": 234.96005470403458,
        "Satellite Name": "Starlink Shell 1 1053",
        "Satellite Number": 1053,
        "Semi-Major Axis(m)": 6931778.249405717,
        "Time(s)": 770
    },
    {
        "Altitude(m)": 554260.2422674566,
        "Argument of Periapsis(deg)": 0.027189121401876473,
        "Eccentricity": 0.0,
        "Inclination(deg)": 53.0,
        "Latitude(deg)": -0.21654706378322486,
        "Longitude(deg)": 131.56900690995184,
        "Mean Anomaly(deg)": -0.19806612257615952,
        "RAAN(deg)": 234.9595359339571,
        "Satellite Name": "Starlink Shell 1 1053",
        "Satellite Number": 1053,
        "Semi-Major Axis(m)": 6931778.249405717,
        "Time(s)": 780
    },
    {
        "Altitude(m)": 554195.0643157214,
        "Argument of Periapsis(deg)": 0.02753769988138771,
        "Eccentricity": 0.0,
        "Inclination(deg)": 53.0,
        "Latitude(deg)": 0.28739410487647976,
        "Longitude(deg)": 131.90437911901847,
        "Mean Anomaly(deg)": 0.4287650809805362,
        "RAAN(deg)": 234.95901716387962,
        "Satellite Name": "Starlink Shell 1 1053",
        "Satellite Number": 1053,
        "Semi-Major Axis(m)": 6931778.249405717,
        "Time(s)": 790
    },
    {
        "Altitude(m)": 554132.6885470275,
        "Argument of Periapsis(deg)": 0.02788627836089895,
        "Eccentricity": 0.0,
        "Inclination(deg)": 53.0,
        "Latitude(deg)": 0.7913317827324478,
        "Longitude(deg)": 132.23979135390468,
        "Mean Anomaly(deg)": 1.0555962845372826,
        "RAAN(deg)": 234.95849839380216,
        "Satellite Name": "Starlink Shell 1 1053",
        "Satellite Number": 1053,
        "Semi-Major Axis(m)": 6931778.249405717,
        "Time(s)": 800
    },
    {
        "Altitude(m)": 554073.121502506,
        "Argument of Periapsis(deg)": 0.02823485684041019,
        "Eccentricity": 0.0,
        "Inclination(deg)": 53.0,
        "Latitude(deg)": 1.2952430661052712,
        "Longitude(deg)": 132.57530115894969,
        "Mean Anomaly(deg)": 1.682427488094029,
        "RAAN(deg)": 234.9579796237247,
        "Satellite Name": "Starlink Shell 1 1053",
        "Satellite Number": 1053,
        "Semi-Major Axis(m)": 6931778.249405717,
        "Time(s)": 810
    },
    {
        "Altitude(m)": 554016.3683669954,
        "Argument of Periapsis(deg)": 0.028583435319921423,
        "Eccentricity": 0.0,
        "Inclination(deg)": 53.0,
        "Latitude(deg)": 1.7991050291832904,
        "Longitude(deg)": 132.91096662807988,
        "Mean Anomaly(deg)": 2.309258691650674,
        "RAAN(deg)": 234.9574608536472,
        "Satellite Name": "Starlink Shell 1 1053",
        "Satellite Number": 1053,
        "Semi-Major Axis(m)": 6931778.249405717,
        "Time(s)": 820
    },
    {
        "Altitude(m)": 553962.4329692433,
        "Argument of Periapsis(deg)": 0.028932013799432665,
        "Eccentricity": 0.0,
        "Inclination(deg)": 53.0,
        "Latitude(deg)": 2.302894712317947,
        "Longitude(deg)": 133.24684542147784,
        "Mean Anomaly(deg)": 2.9360898952073695,
        "RAAN(deg)": 234.95694208356971,
        "Satellite Name": "Starlink Shell 1 1053",
        "Satellite Number": 1053,
        "Semi-Major Axis(m)": 6931778.249405717,
        "Time(s)": 830
    },
    {
        "Altitude(m)": 553911.3177827506,
        "Argument of Periapsis(deg)": 0.029280592278943897,
        "Eccentricity": 0.0,
        "Inclination(deg)": 53.0,
        "Latitude(deg)": 2.8065891102862874,
        "Longitude(deg)": 133.5829952951496,
        "Mean Anomaly(deg)": 3.562921098764116,
        "RAAN(deg)": 234.9564233134923,
        "Satellite Name": "Starlink Shell 1 1053",
        "Satellite Number": 1053,
        "Semi-Major Axis(m)": 6931778.249405717,
        "Time(s)": 840
    },
    {
        "Altitude(m)": 553863.0239273031,
        "Argument of Periapsis(deg)": 0.029629170758455132,
        "Eccentricity": 0.0,
        "Inclination(deg)": 53.0,
        "Latitude(deg)": 3.310165160510912,
        "Longitude(deg)": 133.9194746305236,
        "Mean Anomaly(deg)": 4.189752302320863,
        "RAAN(deg)": 234.9559045434148,
        "Satellite Name": "Starlink Shell 1 1053",
        "Satellite Number": 1053,
        "Semi-Major Axis(m)": 6931778.249405717,
        "Time(s)": 850
    },
    {
        "Altitude(m)": 553817.5511711803,
        "Argument of Periapsis(deg)": 0.02997774923796637,
        "Eccentricity": 0.0,
        "Inclination(deg)": 53.0,
        "Latitude(deg)": 3.813599731227944,
        "Longitude(deg)": 134.25634128311987,
        "Mean Anomaly(deg)": 4.816583505877558,
        "RAAN(deg)": 234.9553857733373,
        "Satellite Name": "Starlink Shell 1 1053",
        "Satellite Number": 1053,
        "Semi-Major Axis(m)": 6931778.249405717,
        "Time(s)": 860
    },
    {
        "Altitude(m)": 553774.8979340639,
        "Argument of Periapsis(deg)": 0.030326327717477602,
        "Eccentricity": 0.0,
        "Inclination(deg)": 53.0,
        "Latitude(deg)": 4.316869609587411,
        "Longitude(deg)": 134.59365395272116,
        "Mean Anomaly(deg)": 5.443414709434253,
        "RAAN(deg)": 234.95486700325984,
        "Satellite Name": "Starlink Shell 1 1053",
        "Satellite Number": 1053,
        "Semi-Major Axis(m)": 6931778.249405717,
        "Time(s)": 870
    },
    {
        "Altitude(m)": 553735.061290566,
        "Argument of Periapsis(deg)": 0.030674906196988847,
        "Eccentricity": 0.0,
        "Inclination(deg)": 53.0,
        "Latitude(deg)": 4.8199514896792,
        "Longitude(deg)": 134.9314710321413,
        "Mean Anomaly(deg)": 6.0702459129910515,
        "RAAN(deg)": 234.9543482331824,
        "Satellite Name": "Starlink Shell 1 1053",
        "Satellite Number": 1053,
        "Semi-Major Axis(m)": 6931778.249405717,
        "Time(s)": 880
    },
    {
        "Altitude(m)": 553698.0369744749,
        "Argument of Periapsis(deg)": 0.031023484676500086,
        "Eccentricity": 0.0,
        "Inclination(deg)": 53.0,
        "Latitude(deg)": 5.322821960469495,
        "Longitude(deg)": 135.26985113702503,
        "Mean Anomaly(deg)": 6.697077116547748,
        "RAAN(deg)": 234.9538294631049,
        "Satellite Name": "Starlink Shell 1 1053",
        "Satellite Number": 1053,
        "Semi-Major Axis(m)": 6931778.249405717,
        "Time(s)": 890
    },
    {
        "Altitude(m)": 553663.8193836559,
        "Argument of Periapsis(deg)": 0.03137206315601132,
        "Eccentricity": 0.0,
        "Inclination(deg)": 53.0,
        "Latitude(deg)": 5.825457493637997,
        "Longitude(deg)": 135.60885363571353,
        "Mean Anomaly(deg)": 7.323908320104341,
        "RAAN(deg)": 234.95331069302745,
        "Satellite Name": "Starlink Shell 1 1053",
        "Satellite Number": 1053,
        "Semi-Major Axis(m)": 6931778.249405717,
        "Time(s)": 900
    },
    {
        "Altitude(m)": 553632.4015856129,
        "Argument of Periapsis(deg)": 0.03172064163552255,
        "Eccentricity": 0.0,
        "Inclination(deg)": 53.0,
        "Latitude(deg)": 6.32783443130559,
        "Longitude(deg)": 135.9485376663082,
        "Mean Anomaly(deg)": 7.950739523661139,
        "RAAN(deg)": 234.95279192294996,
        "Satellite Name": "Starlink Shell 1 1053",
        "Satellite Number": 1053,
        "Semi-Major Axis(m)": 6931778.249405717,
        "Time(s)": 910
    },
    {
        "Altitude(m)": 553603.7753237135,
        "Argument of Periapsis(deg)": 0.0320692201150338,
        "Eccentricity": 0.0,
        "Inclination(deg)": 53.0,
        "Latitude(deg)": 6.829928973637353,
        "Longitude(deg)": 136.28896266668502,
        "Mean Anomaly(deg)": 8.577570727217886,
        "RAAN(deg)": 234.95227315287246,
        "Satellite Name": "Starlink Shell 1 1053",
        "Satellite Number": 1053,
        "Semi-Major Axis(m)": 6931778.249405717,
        "Time(s)": 920
    },
    {
        "Altitude(m)": 553577.9310240773,
        "Argument of Periapsis(deg)": 0.032417798594545036,
        "Eccentricity": 0.0,
        "Inclination(deg)": 53.0,
        "Latitude(deg)": 7.331717166311917,
        "Longitude(deg)": 136.6301889045908,
        "Mean Anomaly(deg)": 9.20440193077453,
        "RAAN(deg)": 234.95175438279503,
        "Satellite Name": "Starlink Shell 1 1053",
        "Satellite Number": 1053,
        "Semi-Major Axis(m)": 6931778.249405717,
        "Time(s)": 930
    },
    {
        "Altitude(m)": 553554.8578031149,
        "Argument of Periapsis(deg)": 0.03276637707405627,
        "Eccentricity": 0.0,
        "Inclination(deg)": 53.0,
        "Latitude(deg)": 7.8331748878468,
        "Longitude(deg)": 136.97227649495153,
        "Mean Anomaly(deg)": 9.831233134331224,
        "RAAN(deg)": 234.95123561271754,
        "Satellite Name": "Starlink Shell 1 1053",
        "Satellite Number": 1053,
        "Semi-Major Axis(m)": 6931778.249405717,
        "Time(s)": 940
    }
]